OBJECT_NAME,OBJECT_ID,EPOCH,MEAN_MOTION,ECCENTRICITY,INCLINATION,RA_OF_ASC_NODE,ARG_OF_PERICENTER,MEAN_ANOMALY,EPHEMERIS_TYPE,CLASSIFICATION_TYPE,NORAD_CAT_ID,ELEMENT_SET_NO,REV_AT_EPOCH,BSTAR,MEAN_MOTION_DOT,MEAN_MOTION_DDOT
FENGYUN 1C DEB,1999-025ANY,2026-06-12T03:47:10.726656,14.81125245,.01290749,98.9604,123.3007,275.2378,97.6049,0,U,30641,999,3216,.35723256E-3,.3127E-4,0
FENGYUN 1C DEB,1999-025APD,2026-06-12T19:07:23.970144,14.10085381,.0046611,98.6383,182.2398,233.0215,126.6685,0,U,30646,999,99170,.51833E-3,.883E-5,0
FENGYUN 1C DEB,1999-025APE,2026-06-12T18:53:33.324000,14.60852093,.0028402,98.9944,115.7593,347.3583,76.4125,0,U,30647,999,643,.20441E-2,.10008E-3,0
FENGYUN 1C DEB,1999-025APF,2026-06-12T06:09:58.540320,14.50905723,.00301081,98.6407,267.3608,294.6138,119.4832,0,U,30648,999,497,.14417245E-2,.5679E-4,0
FENGYUN 1C DEB,1999-025APG,2026-06-12T05:26:04.422048,14.31071140,.00473989,98.8089,265.7478,3.5260,58.1987,0,U,30649,999,99658,.11927588E-2,.3137E-4,0
FENGYUN 1C DEB,1999-025APH,2026-06-12T01:48:14.179968,14.14851035,.00715685,99.1894,214.0103,42.1038,19.2451,0,U,30650,999,98862,.10401127E-2,.2011E-4,0
FENGYUN 1C DEB,1999-025APJ,2026-06-12T20:42:44.877024,14.07866385,.0009442,98.7606,196.8436,110.5580,63.0336,0,U,30652,999,99256,.3711E-4,.2E-6,0
FENGYUN 1C DEB,1999-025APL,2026-06-12T18:45:38.937024,14.17876910,.0033684,99.2490,99.3191,308.8464,50.9704,0,U,30654,999,99259,.78977E-3,.1575E-4,0
FENGYUN 1C DEB,1999-025APN,2026-06-12T18:46:52.682880,14.48376527,.0028409,99.0222,354.7320,265.4565,94.3381,0,U,30656,999,99718,.19067E-2,.7129E-4,0
FENGYUN 1C DEB,1999-025APP,2026-06-12T06:34:18.355584,14.41014485,.00182728,98.8383,271.9872,164.5063,250.5604,0,U,30657,999,99845,.169745E-2,.5425E-4,0
FENGYUN 1C DEB,1999-025APQ,2026-06-09T00:47:14.134272,13.87995898,.01846199,98.4184,180.2780,97.0831,265.1362,0,U,30658,999,97157,.12689254E-2,.1694E-4,0
FENGYUN 1C DEB,1999-025APS,2026-06-12T06:22:26.112000,14.90542192,.01319814,98.1416,269.8348,100.1816,314.9637,0,U,30660,999,3486,.73232876E-3,.839E-4,0
FENGYUN 1C DEB,1999-025APT,2026-06-11T06:23:31.904736,14.21277159,.0142922,99.4918,356.3989,256.4679,102.0539,0,U,30661,999,467,.92621E-4,.172E-5,0
FENGYUN 1C DEB,1999-025APU,2026-06-01T03:14:51.874368,14.23380021,.00351055,99.0368,217.9590,142.8449,249.6095,0,U,30662,999,99062,.14939547E-2,.3366E-4,0
FENGYUN 1C DEB,1999-025APV,2026-06-11T23:51:06.706368,13.24474746,.06565827,99.3015,66.8245,57.7347,308.5678,0,U,30663,999,91446,.23379963E-2,.3207E-4,0
FENGYUN 1C DEB,1999-025APX,2026-06-12T21:07:38.365824,14.13402205,.0070639,99.2164,145.7373,52.3079,7.2697,0,U,30665,999,98542,.1279E-2,.2415E-4,0
FENGYUN 1C DEB,1999-025APY,2026-06-12T04:21:05.054400,14.02748142,.00607526,98.8404,146.3655,359.9276,60.1544,0,U,30666,999,98654,.43865534E-3,.646E-5,0
FENGYUN 1C DEB,1999-025AQA,2026-06-07T04:49:52.128192,14.13403297,.00810787,99.1203,239.5934,111.2099,305.0864,0,U,30668,999,98547,.1591804E-2,.3041E-4,0
FENGYUN 1C DEB,1999-025AQB,2026-06-12T18:15:16.917408,14.03616855,.012111,98.6427,96.3188,26.0337,39.2626,0,U,30669,999,98006,.15675E-2,.2586E-4,0
FENGYUN 1C DEB,1999-025AQC,2026-06-11T15:42:35.814816,14.15898843,.00378818,98.6821,207.7630,270.7161,214.2659,0,U,30670,999,99712,.77300928E-4,.11E-5,0
FENGYUN 1C DEB,1999-025AQD,2026-06-12T03:55:15.921408,13.96112917,.01248697,99.2365,233.4895,258.1107,156.9196,0,U,30671,999,97726,.887893E-3,.1255E-4,0
FENGYUN 1C DEB,1999-025AQF,2026-06-12T03:14:36.271392,14.03552344,.00514422,98.8918,213.5187,359.1515,62.6193,0,U,30673,999,99076,.96448296E-4,.11E-5,0
FENGYUN 1C DEB,1999-025AQH,2026-06-12T05:25:02.544096,14.28709463,.00492365,98.7452,247.6880,0.8601,59.7257,0,U,30675,999,99482,.10937782E-2,.2743E-4,0
FENGYUN 1C DEB,1999-025AQJ,2026-06-10T05:16:12.508608,13.74703154,.0467492,98.2787,328.8759,281.0870,73.8069,0,U,30676,999,96389,.47499E-3,.96E-5,0
FENGYUN 1C DEB,1999-025AQK,2026-06-05T09:08:22.276896,14.39364542,.00656065,98.2360,199.7164,40.4335,336.3848,0,U,30677,999,480,.10015477E-2,.3152E-4,0
FENGYUN 1C DEB,1999-025AQL,2026-06-10T21:23:54.532032,14.26777153,.00741622,99.0759,134.0024,71.5894,343.5952,0,U,30678,999,98442,.23314309E-2,.5772E-4,0
FENGYUN 1C DEB,1999-025AQM,2026-06-09T22:59:47.253984,13.79961687,.01695699,99.3590,215.9859,325.3799,157.9627,0,U,30679,999,96991,.38276362E-3,.397E-5,0
FENGYUN 1C DEB,1999-025AQN,2026-06-12T18:29:22.807968,13.57421054,.0326686,99.6359,207.8258,70.3294,293.2785,0,U,30680,999,94722,.12624E-2,.1237E-4,0
FENGYUN 1C DEB,1999-025AQR,2026-06-12T17:39:51.276096,14.01074873,.0140368,99.4009,185.7899,88.0858,319.2113,0,U,30683,999,98099,.10976E-2,.1748E-4,0
FENGYUN 1C DEB,1999-025AQS,2026-06-01T01:51:18.041760,13.67170954,.0237208,99.5123,195.9396,191.5423,168.0225,0,U,30684,999,95956,.941461E-3,.915E-5,0
