FENGYUN 1C DEB          
1 30641U 99025ANY 26163.15776304  .00003127  00000+0  35723-3 0  9995
2 30641  98.9604 123.3007 0129074 275.2378  97.6049 14.81125245 32165
FENGYUN 1C DEB          
1 30646U 99025APD 26163.79680521  .00000883  00000+0  51833-3 0  9991
2 30646  98.6383 182.2398 0046611 233.0215 126.6685 14.10085381991706
FENGYUN 1C DEB          
1 30647U 99025APE 26163.78719125  .00010008  00000+0  20441-2 0  9994
2 30647  98.9944 115.7593 0028402 347.3583  76.4125 14.60852093  6431
FENGYUN 1C DEB          
1 30648U 99025APF 26163.25692755  .00005679  00000+0  14417-2 0  9990
2 30648  98.6407 267.3608 0030108 294.6138 119.4832 14.50905723  4978
FENGYUN 1C DEB          
1 30649U 99025APG 26163.22644007  .00003137  00000+0  11928-2 0  9996
2 30649  98.8089 265.7478 0047398   3.5260  58.1987 14.31071140996589
FENGYUN 1C DEB          
1 30650U 99025APH 26163.07516412  .00002011  00000+0  10401-2 0  9994
2 30650  99.1894 214.0103 0071568  42.1038  19.2451 14.14851035988629
FENGYUN 1C DEB          
1 30652U 99025APJ 26163.86301941  .00000020  00000+0  37110-4 0  9998
2 30652  98.7606 196.8436 0009442 110.5580  63.0336 14.07866385992560
FENGYUN 1C DEB          
1 30654U 99025APL 26163.78170066  .00001575  00000+0  78977-3 0  9994
2 30654  99.2490  99.3191 0033684 308.8464  50.9704 14.17876910992595
FENGYUN 1C DEB          
1 30656U 99025APN 26163.78255420  .00007129  00000+0  19067-2 0  9999
2 30656  99.0222 354.7320 0028409 265.4565  94.3381 14.48376527997185
FENGYUN 1C DEB          
1 30657U 99025APP 26163.27382356  .00005425  00000+0  16975-2 0  9995
2 30657  98.8383 271.9872 0018272 164.5063 250.5604 14.41014485998452
FENGYUN 1C DEB          
1 30658U 99025APQ 26160.03280248  .00001694  00000+0  12689-2 0  9996
2 30658  98.4184 180.2780 0184619  97.0831 265.1362 13.87995898971572
FENGYUN 1C DEB          
1 30660U 99025APS 26163.26558000  .00008390  00000+0  73233-3 0  9994
2 30660  98.1416 269.8348 0131981 100.1816 314.9637 14.90542192 34867
FENGYUN 1C DEB          
1 30661U 99025APT 26162.26634149  .00000172  00000+0  92621-4 0  9996
2 30661  99.4918 356.3989 0142922 256.4679 102.0539 14.21277159  4676
FENGYUN 1C DEB          
1 30662U 99025APU 26152.13532262  .00003366  00000+0  14940-2 0  9999
2 30662  99.0368 217.9590 0035105 142.8449 249.6095 14.23380021990628
FENGYUN 1C DEB          
1 30663U 99025APV 26162.99382762  .00003207  00000+0  23380-2 0  9995
2 30663  99.3015  66.8245 0656582  57.7347 308.5678 13.24474746914466
FENGYUN 1C DEB          
1 30665U 99025APX 26163.88030516  .00002415  00000+0  12790-2 0  9996
2 30665  99.2164 145.7373 0070639  52.3079   7.2697 14.13402205985425
FENGYUN 1C DEB          
1 30666U 99025APY 26163.18130850  .00000646  00000+0  43866-3 0  9995
2 30666  98.8404 146.3655 0060752 359.9276  60.1544 14.02748142986542
FENGYUN 1C DEB          
1 30668U 99025AQA 26158.20129778  .00003041  00000+0  15918-2 0  9999
2 30668  99.1203 239.5934 0081078 111.2099 305.0864 14.13403297985474
FENGYUN 1C DEB          
1 30669U 99025AQB 26163.76061247  .00002586  00000+0  15675-2 0  9996
2 30669  98.6427  96.3188 0121110  26.0337  39.2626 14.03616855980064
FENGYUN 1C DEB          
1 30670U 99025AQC 26162.65458119  .00000110  00000+0  77301-4 0  9990
2 30670  98.6821 207.7630 0037881 270.7161 214.2659 14.15898843997126
FENGYUN 1C DEB          
1 30671U 99025AQD 26163.16337872  .00001255  00000+0  88789-3 0  9992
2 30671  99.2365 233.4895 0124869 258.1107 156.9196 13.96112917977269
FENGYUN 1C DEB          
1 30673U 99025AQF 26163.13514203  .00000110  00000+0  96448-4 0  9997
2 30673  98.8918 213.5187 0051442 359.1515  62.6193 14.03552344990765
FENGYUN 1C DEB          
1 30675U 99025AQH 26163.22572389  .00002743  00000+0  10938-2 0  9990
2 30675  98.7452 247.6880 0049236   0.8601  59.7257 14.28709463994823
FENGYUN 1C DEB          
1 30676U 99025AQJ 26161.21958922  .00000960  00000+0  47499-3 0  9991
2 30676  98.2787 328.8759 0467492 281.0870  73.8069 13.74703154963898
FENGYUN 1C DEB          
1 30677U 99025AQK 26156.38081339  .00003152  00000+0  10015-2 0  9992
2 30677  98.2360 199.7164 0065606  40.4335 336.3848 14.39364542  4800
FENGYUN 1C DEB          
1 30678U 99025AQL 26161.89160338  .00005772  00000+0  23314-2 0  9998
2 30678  99.0759 134.0024 0074162  71.5894 343.5952 14.26777153984424
FENGYUN 1C DEB          
1 30679U 99025AQM 26160.95818581  .00000397  00000+0  38276-3 0  9997
2 30679  99.3590 215.9859 0169569 325.3799 157.9627 13.79961687969913
FENGYUN 1C DEB          
1 30680U 99025AQN 26163.77040287  .00001237  00000+0  12624-2 0  9994
2 30680  99.6359 207.8258 0326686  70.3294 293.2785 13.57421054947220
FENGYUN 1C DEB          
1 30683U 99025AQR 26163.73601014  .00001748  00000+0  10976-2 0  9999
2 30683  99.4009 185.7899 0140368  88.0858 319.2113 14.01074873980999
FENGYUN 1C DEB          
1 30684U 99025AQS 26152.07729215  .00000915  00000+0  94146-3 0  9996
2 30684  99.5123 195.9396 0237208 191.5423 168.0225 13.67170954959562
